Station,Exit,lat,lon,x,y
KAKI BUKIT MRT STATION,Exit B,1.33492189034272,103.909146276263,36438.82750006078,35234.52679993625
BEDOK RESERVOIR MRT STATION,Exit B,1.33655490332863,103.933487189855,39147.71100002744,35415.19419993829
BENCOOLEN MRT STATION,Exit C,1.29769911765443,103.849271703873,29775.44130008863,31118.499399877815
BENCOOLEN MRT STATION,Exit A,1.29919519603019,103.850843384717,29950.35430001635,31283.92919988102
KAKI BUKIT MRT STATION,Exit A,1.33531120636956,103.909405098626,36467.63040005819,35277.57629993636
TAMPINES WEST MRT STATION,Exit B,1.34499919751448,103.938948503782,39755.45810007298,36348.94809995121
JALAN BESAR MRT STATION,Exit A,1.30488989412929,103.855296125414,30445.899100001014,31913.623499888996
BENDEMEER MRT STATION,Exit A,1.31385250562225,103.863074005937,31311.4941000263,32904.671999903236
BEDOK NORTH MRT STATION,Exit C,1.33442257655151,103.917810526029,37403.07020001069,35179.346599934855
UPPER CHANGI MRT STATION,Exit D,1.34084047406433,103.961043080709,42214.371200048045,35889.21409994554
GEYLANG BAHRU MRT STATION,Exit B,1.32110911579532,103.871794271427,32281.963900013077,33707.08409991407
TAMPINES MRT STATION,Exit D,1.35487057481792,103.943678182032,40281.770800083745,37440.49989996709
TAMPINES MRT STATION,Exit G,1.35459633872811,103.942723496695,40175.52639999494,37410.171399966406
BEDOK RESERVOIR MRT STATION,Exit A,1.33634776089978,103.932886822506,39080.89730001324,35392.2866999384
SENJA LRT STATION,Exit A,1.3828754471752,103.762325766572,20099.40060006336,40536.974700010214
YISHUN MRT STATION,Exit B,1.42963629191008,103.834865533461,28172.152999986585,45707.43440008287
YISHUN MRT STATION,Exit E,1.42966559716462,103.835643654933,28258.746299999293,45710.67490008339
SERANGOON MRT STATION,Exit G,1.35079019941389,103.872866695396,32401.261300061684,36989.06899996112
SERANGOON MRT STATION,Exit B,1.34983373825613,103.873641321904,32487.470300058005,36883.30979995965
SERANGOON MRT STATION,Exit E,1.3508202454304,103.872902116341,32405.203200060037,36992.391399960936
TAI SENG MRT STATION,Exit A,1.33591408492645,103.887627437262,34044.00310002148,35344.1752999375
EUNOS MRT STATION,Exit C,1.31952991880127,103.903215186978,35778.80719999733,33532.54069991233
SEMBAWANG MRT STATION,Exit C,1.44915683716069,103.819758966004,26491.03040008745,47865.92270011338
HOUGANG MRT STATION,Exit B,1.37194611655273,103.892972400972,34638.74340007825,39328.42939999391
CHANGI AIRPORT MRT STATION,Exit A,1.3563414210048,103.989276642414,45356.36200005369,37603.41799996882
OUTRAM PARK MRT STATION,Exit 8,1.28232163095245,103.838117129674,28534.03930003965,29418.131199854695
OUTRAM PARK MRT STATION,Exit 7,1.2810220177189,103.838640195189,28592.252499988153,29274.426799851874
MAXWELL MRT STATION,Exit 3,1.28019152238094,103.842916305543,29068.149100041486,29182.59629985129
MAXWELL MRT STATION,Exit 1,1.28103425526259,103.844164413475,29207.05300002589,29275.781899851936
MAXWELL MRT STATION,Exit 2,1.28091943659091,103.844895459262,29288.41250005925,29263.08619985206
SHENTON WAY MRT STATION,Exit 1,1.27746205833565,103.851835707382,30060.808400087284,28880.791699846297
SHENTON WAY MRT STATION,Exit 5,1.2771436461189,103.851807978051,30057.722600060893,28845.583299846447
SHENTON WAY MRT STATION,Exit 4,1.27765594176983,103.851034086049,29971.594199987187,28902.22969984705
SHENTON WAY MRT STATION,Exit 2,1.27700305442423,103.850915094628,29958.35189998,28830.036699845667
SHENTON WAY MRT STATION,Exit 3,1.27762958112669,103.850128771071,29870.839900058603,28899.314199846936
SHENTON WAY MRT STATION,Exit 6,1.27792920509497,103.849893223277,29844.62510008814,28932.4448998472
MARINA BAY MRT STATION,Exit 1,1.27735303297793,103.854470032954,30353.98790001926,28868.738499846997
MARINA BAY MRT STATION,Exit 5,1.27469326445441,103.854319501956,30337.237400005302,28574.634899842873
MARINA BAY MRT STATION,Exit 4,1.27363420910955,103.856488836263,30578.66830001444,28457.53209984069
MARINA BAY MRT STATION,Exit 3,1.27541636589719,103.85537174149,30454.342699996698,28654.592699843786
ORCHARD MRT STATION,Exit 11,1.30421797905404,103.830496723547,27685.95329998823,31839.316099888223
ORCHARD MRT STATION,Exit 10,1.30404570543486,103.831126574248,27756.049900067243,31820.266899887945
ORCHARD MRT STATION,Exit 9,1.30366551621641,103.831506861841,27798.372400027576,31778.227499887962
ORCHARD MRT STATION,Exit 8,1.30344571958931,103.83178613556,27829.453000044472,31753.923499887005
ORCHARD MRT STATION,Exit 13,1.30229921132352,103.832124829631,27867.146500084844,31627.148499885498
ORCHARD MRT STATION,Exit 5,1.30394471745993,103.832023815157,27855.90459998455,31809.100099887513
ORCHARD MRT STATION,Exit 6,1.30364769526593,103.832320915154,27888.96910005362,31776.256899887674
STEVENS MRT STATION,Exit 5,1.32093774341441,103.826322577145,27221.414200080442,33688.102599914026
STEVENS MRT STATION,Exit 4,1.32151990425561,103.825882869659,27172.479300054067,33752.475099915086
STEVENS MRT STATION,Exit 1,1.31995163510642,103.825728378177,27155.285400004585,33579.06399991239
STEVENS MRT STATION,Exit 2,1.31882889618825,103.826013593581,27187.02670008037,33454.917199910546
STEVENS MRT STATION,Exit 3,1.31947046099515,103.824991570643,27073.285800064852,33525.858499911476
HAVELOCK MRT STATION,Exit 1,1.28667674481792,103.833839753358,28058.002300067532,29899.69669986082
HAVELOCK MRT STATION,Exit 2,1.28694406698765,103.833495118232,28019.647300056342,29929.255799861392
HAVELOCK MRT STATION,Exit 5,1.28956096428231,103.833961901637,28071.596300079855,30218.618799865253
HAVELOCK MRT STATION,Exit 4,1.29016689416429,103.834003496172,28076.225400014242,30285.61939986653
CITY HALL MRT STATION,Exit D,1.29345482595132,103.851802333809,30057.0814000203,30649.189399871277
SOO TECK LRT STATION,Exit A,1.40501492486707,103.897029921817,35090.19770003426,42985.02440004443
SOO TECK LRT STATION,Exit B,1.40524489949914,103.897408572121,35132.33559999404,43010.455000044865
DAMAI LRT STATION,Exit A,1.40528461343374,103.908792226992,36399.18050002736,43014.88420004485
MARINA BAY MRT STATION,Exit 2,1.27615893131623,103.85500333792,30413.341600039483,28736.701399844344
GARDENS BY THE BAY MRT STATION,Exit 3,1.27830343996812,103.867154122142,31765.6245000372,28973.84469984788
GARDENS BY THE BAY MRT STATION,Exit 2,1.27882622333397,103.867968767276,31856.28720000656,29031.652599848523
GARDENS BY THE BAY MRT STATION,Exit 1,1.28037075595564,103.868586734111,31925.059599998756,29202.43999985139
MARINA SOUTH MRT STATION,Exit 1,1.27357480448593,103.861503878728,31136.803400056026,28450.96899984065
MARINA SOUTH MRT STATION,Exit 2,1.27385994951971,103.861777210111,31167.222700009537,28482.4991998415
MARINA SOUTH MRT STATION,Exit 3,1.27313520508679,103.862894304629,31291.547500073655,28402.36209984035
MARINA SOUTH MRT STATION,Exit 4,1.27551141461164,103.862668508874,31266.41519998756,28665.11079984349
ORCHARD BOULEVARD MRT STATION,Exit 1,1.30362395339039,103.823637898436,26922.628600033026,31773.633699887414
ORCHARD BOULEVARD MRT STATION,Exit 2,1.30246332428451,103.82389561212,26951.309300083798,31645.297199886012
GREAT WORLD MRT STATION,Exit 5,1.29655259456474,103.833405504371,28009.674000030525,30991.717199876926
GREAT WORLD MRT STATION,Exit 1,1.29332097607264,103.833904631248,28065.222499998774,30634.381499871437
GREAT WORLD MRT STATION,Exit 2,1.2928694999213,103.832627103189,27923.04470002053,30584.459599870814
GREAT WORLD MRT STATION,Exit 6,1.29318434464758,103.832841014649,27946.85120007109,30619.273499870982
GREAT WORLD MRT STATION,Exit 3,1.29381997655443,103.832734059176,27934.948000084452,30689.558399871654
GREAT WORLD MRT STATION,Exit 4,1.29602983278925,103.833037100577,27968.673900070025,30933.91289987606
HAVELOCK MRT STATION,Exit 3,1.28884356335354,103.833369520278,28005.669299980214,30139.29229986474
NAPIER MRT STATION,Exit 1,1.30693598792234,103.819483777776,26460.314900008638,32139.863599892713
NAPIER MRT STATION,Exit 2,1.3063449793684,103.819506621185,26462.85680002269,32074.51289989146
ORCHARD MRT STATION,Exit 12,1.30285761474898,103.830663098953,27704.46920004466,31688.893999885764
OASIS LRT STATION,Exit A,1.40250713144757,103.912646133061,36828.078000057736,42707.7782000407
KADALOOR LRT STATION,Exit A,1.39980926315018,103.916387458482,37244.44750008741,42409.47570003619
MERIDIAN LRT STATION,Exit A,1.39668105013866,103.908965833187,36418.53120000487,42063.54550003145
MERIDIAN LRT STATION,Exit B,1.39712168979943,103.908869496154,36407.80860003412,42112.26890003225
COVE LRT STATION,Exit A,1.399124393509,103.905928735776,36080.53420005578,42333.707600035385
SOUTH VIEW LRT STATION,Exit A,1.38031765699103,103.74510113108,18182.505300066794,40254.21120000648
HOLLAND VILLAGE MRT STATION,Exit B,1.31106948365962,103.79576910839,23821.098699988834,32596.951399899357
ONE-NORTH MRT STATION,Exit B,1.30035949347946,103.787927806168,22948.414300054374,31412.709899882622
OUTRAM PARK MRT STATION,Exit 3,1.28099327615611,103.83978923248,28720.131000026744,29271.24899985241
DOVER MRT STATION,Exit A,1.31141543344877,103.778304715288,21877.477100056967,32635.240699899514
DOVER MRT STATION,Exit B,1.31169319167964,103.778464771304,21895.290500022802,32665.95339989952
BOON LAY MRT STATION,Exit D,1.33862950779597,103.705650038035,13791.843900052143,35644.73599994153
BOON LAY MRT STATION,Exit E,1.3385141209312,103.7053533532,13758.825300059538,35631.97879994188
BOON LAY MRT STATION,Exit F,1.33827322197702,103.705795031365,13807.978100047158,35605.338799941506
BUKIT BATOK MRT STATION,Exit B,1.34938958776808,103.749936955579,18720.553700001434,36834.31979995876
JOO KOON MRT STATION,Exit A,1.32750208445865,103.678520709011,10772.552899997117,34414.491899923996
JOO KOON MRT STATION,Exit B,1.32795611143786,103.678644077077,10786.285700058346,34464.69519992486
CHOA CHU KANG MRT STATION,Exit D,1.38570539067001,103.744223583926,18084.867600068294,40849.96380001461
KRANJI MRT STATION,Exit D,1.42512495935501,103.762496770529,20118.572699980163,45208.715100076166
MARSILING MRT STATION,Exit B,1.43275137172006,103.774410520697,21444.42030008428,46051.96850008772
MARSILING MRT STATION,Exit D,1.43275136098458,103.773997133375,21398.41650003117,46051.96850008743
HARBOURFRONT MRT STATION,Exit E,1.26497195959122,103.8215802917,26693.616100076364,27499.696799827063
HARBOURFRONT MRT STATION,Exit D,1.26597925499591,103.821398857154,26673.42430001714,27611.078399829246
HARBOURFRONT MRT STATION,Exit A,1.26601318319783,103.820468350461,26569.865900044562,27614.830499828815
CHINATOWN MRT STATION,Exit A,1.28371277043019,103.8437978881,29166.260500085176,29571.95809985652
CLARKE QUAY MRT STATION,Exit B,1.28780575265584,103.845903432736,29400.58800008759,30024.53999986293
CLARKE QUAY MRT STATION,Exit G,1.28919925781809,103.846593909165,29477.431399985617,30178.626999864566
LITTLE INDIA MRT STATION,Exit A,1.30560525103922,103.84936002946,29785.2656000024,31992.718999890058
SAM KEE LRT STATION,Exit B,1.40982767244172,103.904792279936,35954.025699999984,43517.21910005204
DAMAI LRT STATION,Exit B,1.40504602830874,103.908613856028,36379.33110001408,42988.50200004471
OASIS LRT STATION,Exit B,1.4021037193748,103.912754573795,36840.147499987506,42663.171300040114
KADALOOR LRT STATION,Exit B,1.39941146718039,103.916517130328,37258.879800049035,42365.48990003566
RIVIERA LRT STATION,Exit B,1.39455906596969,103.915935470521,37194.16770006506,41828.933100029084
RIVIERA LRT STATION,Exit A,1.3943256111184,103.916263098527,37230.629300021785,41803.120100028726
CORAL EDGE LRT STATION,Exit B,1.39397080711083,103.912708744367,36835.077699985915,41763.874000027696
CORAL EDGE LRT STATION,Exit A,1.39368465222162,103.91265223397,36828.78990005377,41732.232200026694
COVE LRT STATION,Exit B,1.39930265660882,103.9061760136,36108.05230001359,42353.41990003647
HARBOURFRONT MRT STATION,Exit A,1.26508503461184,103.822509807219,26797.06430006047,27512.199599827705
MACPHERSON MRT STATION,Exit A,1.3266787588073,103.889793336526,34285.06830000643,34322.98519992309
MACPHERSON MRT STATION,Exit B,1.32585503018196,103.890665675221,34382.152900060646,34231.903699921364
MACPHERSON MRT STATION,Exit C,1.32548152990651,103.890262565574,34337.291800083374,34190.602899921345
TONGKANG LRT STATION,Exit B,1.38937900794855,103.886084357383,33872.14510002657,41256.052800020254
TONGKANG LRT STATION,Exit A,1.38918016099808,103.885962114119,33858.54149998429,41234.06500001995
RENJONG LRT STATION,Exit A,1.38669795588852,103.890409161732,34353.446899994866,40959.6067000165
RENJONG LRT STATION,Exit B,1.38681414421555,103.890438192124,34356.67730007042,40972.45430001615
RANGGUNG LRT STATION,Exit A,1.3841763860699,103.897321723817,35122.73390001812,40680.8038000129
RANGGUNG LRT STATION,Exit B,1.38410488340512,103.897223938055,35111.851800069766,40672.89710001237
KANGKAR LRT STATION,Exit A,1.38407450287348,103.902147558141,35659.788300076674,40669.55310001273
KANGKAR LRT STATION,Exit B,1.38376520316725,103.902276368029,35674.12420001574,40635.35270001222
BAKAU LRT STATION,Exit A,1.38818538545215,103.905445630714,36026.80810008882,41124.12490001843
BAKAU LRT STATION,Exit B,1.387840799257,103.905482124043,36030.87050003663,41086.022400018395
RUMBIA LRT STATION,Exit A,1.39134048641742,103.906018791652,36090.58280007729,41473.00220002336
RUMBIA LRT STATION,Exit B,1.39141424178713,103.906105819366,36100.26760005379,41481.15800002399
ONE-NORTH MRT STATION,Exit A,1.29902749872281,103.786907466321,22834.85690005779,31265.42679987993
KENT RIDGE MRT STATION,Exit B,1.29242811590855,103.784809631882,22601.37260001411,30535.705199870106
KENT RIDGE MRT STATION,Exit A,1.29431588700949,103.784465895365,22563.121700016487,30744.445999872984
HAW PAR VILLA MRT STATION,Exit A,1.28305527354176,103.782006397072,22289.375799990128,29499.310399854952
PASIR PANJANG MRT STATION,Exit A,1.27600323278505,103.79203018692,23404.92889998841,28719.511799844036
LABRADOR PARK MRT STATION,Exit A,1.27210695805434,103.802355553663,24554.055400044243,28288.66569983903
TELOK BLANGAH MRT STATION,Exit A,1.2707212262114,103.80988373092,25391.8818000066,28135.429799835794
TAN KAH KEE MRT STATION,Exit A,1.32533306908018,103.807799119073,25159.94150004789,34174.12869992154
CASHEW MRT STATION,Exit A,1.36983331859629,103.764234480711,20311.774600036406,39094.8350999899
SIXTH AVENUE MRT STATION,Exit A,1.33078046994618,103.796566082121,23909.826600086824,34776.49019992912
KING ALBERT PARK MRT STATION,Exit A,1.33553707766976,103.783030260215,22403.439799980777,35302.478299936556
HILLVIEW MRT STATION,Exit B,1.36208433991773,103.767108459936,20631.59030004789,38237.98289997791
BUKIT PANJANG MRT STATION,Exit A,1.37900796974076,103.761922934209,20054.557599983476,40109.32970000409
ROCHOR MRT STATION,Exit A,1.30340410653552,103.852375021633,30120.808299979955,31749.33009988709
DOWNTOWN MRT STATION,Exit F,1.27979623969206,103.852427746441,30126.69570007659,29138.893899850438
TELOK AYER MRT STATION,Exit A,1.28188738923558,103.848506543896,29690.296200017594,29370.119499853085
PIONEER MRT STATION,Exit A,1.33734462692044,103.697155373411,12846.468099996691,35502.710899939724
PIONEER MRT STATION,Exit B,1.33783162800548,103.697129452876,12843.586399997499,35556.56129994071
TANJONG PAGAR MRT STATION,Exit I,1.27644796791678,103.845656003885,29373.057300003555,28768.654699844647
BUONA VISTA MRT STATION,Exit D,1.30629814162477,103.790930065154,23282.54990004055,32069.369399891046
COMPASSVALE LRT STATION,Exit A,1.39432752151004,103.9006164696,35489.36529999988,41803.27580002828
COMPASSVALE LRT STATION,Exit B,1.39453417229989,103.900706597553,35499.394700074256,41826.126500028666
PUNGGOL POINT LRT STATION,Exit B,1.41666406794097,103.906693304924,36165.55950007829,44273.16040006299
PUNGGOL POINT LRT STATION,Exit A,1.41691476791429,103.906817792333,36179.412299993,44300.882000063546
NIBONG LRT STATION,Exit A,1.4117727733571,103.900073808053,35428.91920007256,43732.283100055
NIBONG LRT STATION,Exit B,1.4119103237023,103.900531554207,35479.85950003475,43747.49420005571
SUMANG LRT STATION,Exit A,1.40836843102047,103.898335680078,35235.50040007573,43355.84240004982
SUMANG LRT STATION,Exit B,1.40848790183837,103.898757123956,35282.40090008945,43369.05420004977
DOWNTOWN MRT STATION,Exit E,1.27952791063231,103.852478046399,30132.29390007648,29109.22349985026
DOWNTOWN MRT STATION,Exit B,1.27960131828225,103.85290812847,30180.1585000061,29117.340899849798
DOWNTOWN MRT STATION,Exit C,1.27944436839161,103.853152091961,30207.309800029223,29099.986399850328
DOWNTOWN MRT STATION,Exit D,1.27917604078089,103.853013759131,30191.914700006502,29070.315999849707
TELOK AYER MRT STATION,Exit C,1.28225066426407,103.848841656061,29727.591199988143,29410.288799853734
FARRER PARK MRT STATION,Exit I,1.3117658772962,103.855806657255,30502.709800046825,32673.934899899785
FARRER PARK MRT STATION,Exit H,1.31188350806091,103.856098852115,30535.228199979083,32686.94219990049
BOON KENG MRT STATION,Exit C,1.31791481647231,103.860706833288,31048.045500089098,33353.85849990989
POTONG PASIR MRT STATION,Exit A,1.33280135224287,103.868966444703,31967.236100040664,34999.94719993268
NICOLL HIGHWAY MRT STATION,Exit B,1.29966075968377,103.864151747702,31431.455700021354,31335.422999881324
BOTANIC GARDENS MRT STATION,Exit A,1.32253463294936,103.814976905734,25958.754499998216,33864.68489991666
FARRER ROAD MRT STATION,Exit A,1.31749372589551,103.807965230708,25178.419200051925,33307.294099908904
FARRER ROAD MRT STATION,Exit B,1.31755201617223,103.807389234558,25114.31650007589,33313.74019990929
HOLLAND VILLAGE MRT STATION,Exit C,1.31071120133272,103.795753770113,23819.39109998735,32557.334399897976
HOLLAND VILLAGE MRT STATION,Exit A,1.31122026577719,103.796139102483,23862.2758000485,32613.623499899302
BAYFRONT MRT STATION,Exit C,1.28283490868894,103.859596872187,30924.55799998228,29474.90129985503
BAYFRONT MRT STATION,Exit B,1.28270522470828,103.859759180227,30942.62170007929,29460.561699854912
BEAUTY WORLD MRT STATION,Exit B,1.34158221454984,103.775450679441,21559.92780004609,35970.937499946645
BISHAN MRT STATION,Exit D,1.35105321993329,103.850201081965,29878.832700046092,37018.12319996051
BISHAN MRT STATION,Exit A,1.35057959871202,103.848304991722,29667.819500045374,36965.75119996077
BOON KENG MRT STATION,Exit A,1.32010687599131,103.861502357069,31136.57680005151,33596.24619991286
SENGKANG MRT STATION,Exit D,1.39237084363153,103.89570545661,34942.840000015894,41586.901100025134
SENGKANG MRT STATION,Exit B,1.39179563766207,103.895636894365,34935.211599993185,41523.29750002427
SENGKANG MRT STATION,Exit A,1.39182911971822,103.895405720754,34909.484900002266,41526.99910002468
SENGKANG MRT STATION,Exit C,1.39088158609449,103.895209399885,34887.639700073,41422.22500002249
PUNGGOL MRT STATION,Exit A,1.40533957622685,103.902305996656,35677.35160001362,43020.93940004584
PUNGGOL LRT STATION,Exit D,1.40443833617806,103.901798524363,35620.879799982635,42921.283100043576
PUNGGOL MRT STATION,Exit B,1.40518624176365,103.902598196988,35709.87000008416,43003.98540004561
PUNGGOL LRT STATION,Exit C,1.40430062572978,103.902115639183,35656.17080005094,42906.05680004353
BUANGKOK MRT STATION,Exit B,1.38264972282021,103.893463152237,34693.32820005751,40511.98180001018
YISHUN MRT STATION,Exit C,1.42911681431371,103.835090842713,28197.226600044727,45649.993200082696
TAI SENG MRT STATION,Exit B,1.33462087723075,103.888214067772,34109.292100016355,35201.18039993522
BARTLEY MRT STATION,Exit B,1.34350106152933,103.878908693925,33073.68310008957,36183.08489994883
BARTLEY MRT STATION,Exit A,1.34224874921609,103.880255893265,33223.614400081235,36044.61339994719
SERANGOON MRT STATION,Exit H,1.34972769951436,103.873546495734,32476.91740003426,36871.584399958985
SERANGOON MRT STATION,Exit A,1.349481680255,103.873957395391,32522.64640003488,36844.38159995841
SERANGOON MRT STATION,Exit D,1.3499015921065,103.874321946576,32563.2160999928,36890.81399995936
SERANGOON MRT STATION,Exit C,1.35059510442143,103.873694014498,32493.332999983602,36967.49789996083
SERANGOON MRT STATION,Exit F,1.35094827793695,103.871449340349,32243.525300030713,37006.54599996048
LORONG CHUAN MRT STATION,Exit B,1.35173853791277,103.862918299956,31294.11519998636,37093.91569996224
LORONG CHUAN MRT STATION,Exit A,1.35143910357514,103.864933673465,31518.404000079296,37060.80859996167
MARYMOUNT MRT STATION,Exit B,1.34786607217308,103.840058918077,28750.124900010225,36665.6991999563
MARYMOUNT MRT STATION,Exit A,1.34898038642137,103.839087956801,28642.067400086176,36788.91409995827
DHOBY GHAUT MRT STATION,Exit C,1.29964924216132,103.844747857191,29271.97630006706,31334.13139988173
CALDECOTT MRT STATION,Exit 1,1.33710531669564,103.839406731225,28677.546700070976,35475.829699939044
EXPO MRT STATION,Exit A,1.33532172433891,103.961942958226,42314.55010002685,35278.982699936074
EXPO MRT STATION,Exit B,1.33525294423695,103.962075287596,42329.27740004769,35271.37809993636
ADMIRALTY MRT STATION,Exit B,1.44015239674676,103.800533463258,24351.522599995194,46870.27860009911
ADMIRALTY MRT STATION,Exit D,1.4405333880723,103.801364534451,24444.0086000205,46912.405400100346
ANG MO KIO MRT STATION,Exit C,1.3694405305965,103.849343273705,29783.35480007292,39051.29769998951
BAYFRONT MRT STATION,Exit A,1.28096742397164,103.85873192474,30828.298500000157,29268.40349985179
BAYFRONT MRT STATION,Exit E,1.28110463709187,103.858441003652,30795.921200027584,29283.575499852923
BAYFRONT MRT STATION,Exit D,1.28283435447098,103.859493846611,30913.092100021073,29474.8398998555
TAMPINES MRT STATION,Exit B,1.35353908166709,103.945089563334,40438.84849999337,37293.277099964616
HOUGANG MRT STATION,Exit C,1.37214183483289,103.891975029135,34527.74750003273,39350.06819999402
HOUGANG MRT STATION,Exit A,1.37020857826092,103.892445723159,34580.13530008122,39136.299699990646
KOVAN MRT STATION,Exit B,1.36020562306327,103.884721732122,33720.57200000755,38030.20359997567
KOVAN MRT STATION,Exit C,1.36002801014446,103.885450578,33801.68449998426,38010.56579997457
KOVAN MRT STATION,Exit A,1.35970758870125,103.884307428636,33674.46600005858,37975.1324999748
EUNOS MRT STATION,Exit A,1.31951727489935,103.902894137842,35743.077600067634,33531.14159991162
EUNOS MRT STATION,Exit B,1.3195625452698,103.902582077618,35708.34820006326,33536.14639991246
KEMBANGAN MRT STATION,Exit B,1.32115210805545,103.912899288746,36856.54770000234,33711.94659991507
KEMBANGAN MRT STATION,Exit A,1.32092376028202,103.912941079407,36861.19940000055,33686.69719991417
BEDOK MRT STATION,Exit A,1.32356863615635,103.929157143095,38665.87769999955,33979.218099918406
BEDOK MRT STATION,Exit B,1.32426834276114,103.929673089995,38723.29450006317,34056.59039991927
ANG MO KIO MRT STATION,Exit B,1.36968532219972,103.849596100655,29811.491200005625,39078.365699989845
ANG MO KIO MRT STATION,Exit A,1.3694647065051,103.849939000741,29849.652000040376,39053.971399990165
BISHAN MRT STATION,Exit B,1.35106443927374,103.84831225598,29668.62760002124,37019.36239996083
BISHAN MRT STATION,Exit E,1.35103483777104,103.848432923875,29682.056600048953,37016.08929996143
BISHAN MRT STATION,Exit C,1.35058491153989,103.848209281294,29657.168000061316,36966.33859996008
BRADDELL MRT STATION,Exit C,1.34067216394317,103.847440830591,29571.654400036754,35870.23709994504
BRADDELL MRT STATION,Exit B,1.34074431901447,103.846406497231,29456.54420000406,35878.214999945485
BRADDELL MRT STATION,Exit A,1.34106899206951,103.846429540721,29459.108500027483,35914.115699945076
TOA PAYOH MRT STATION,Exit B,1.33231553664677,103.847577567476,29586.87710003385,34946.20409993218
TOA PAYOH MRT STATION,Exit C,1.33299410183748,103.847319773632,29558.18690005862,35021.23619993307
NOVENA MRT STATION,Exit B,1.31989588603478,103.843339733476,29115.25580000154,33572.90049991258
NOVENA MRT STATION,Exit A,1.32109486830236,103.844389333871,29232.06540008709,33705.47829991478
TOA PAYOH MRT STATION,Exit D,1.33327874598633,103.846517406156,29468.891600068877,35052.710199933936
WOODLEIGH MRT STATION,Exit C,1.3398672199419,103.871053804158,32199.525500049233,35781.258299943445
WOODLEIGH MRT STATION,Exit A,1.33851065441145,103.870940604568,32186.929900031104,35631.25599994171
WOODLEIGH MRT STATION,Exit B,1.33858314946013,103.870508468145,32138.837600088977,35639.27139994166
BOON KENG MRT STATION,Exit B,1.31923519599748,103.861903675519,31181.2407000584,33499.86079991195
POTONG PASIR MRT STATION,Exit C,1.33106671097983,103.868703893188,31938.019600080403,34808.13899992982
POTONG PASIR MRT STATION,Exit B,1.33114814073399,103.869333239363,32008.05920003767,34817.14409992979
SOMERSET MRT STATION,Exit A,1.3000284884874,103.838399326576,28565.441600060927,31376.064199881803
ONE-NORTH MRT STATION,Exit C,1.29971469760634,103.787565456204,22908.086700083186,31341.41239988176
BRAS BASAH MRT STATION,Exit B,1.29604621307724,103.850474275507,29909.27809997995,30935.730599875817
BRAS BASAH MRT STATION,Exit A,1.29685892177104,103.851327253386,30004.20640002564,31025.596399876646
BRAS BASAH MRT STATION,Exit C,1.29701443296395,103.850249852705,29884.30110008151,31042.79119987759
BRAS BASAH MRT STATION,Exit D,1.29755148518356,103.85015752098,29874.025000024296,31102.175599878432
BRAS BASAH MRT STATION,Exit E,1.29753545171709,103.850423192511,29903.591900064323,31100.40289987815
ESPLANADE MRT STATION,Exit A,1.29337054827687,103.856305554739,30558.25090002217,30639.874499871108
BUKIT BATOK MRT STATION,Exit C,1.34952006073274,103.749766564931,18701.591600064763,36848.74749995852
CHINATOWN MRT STATION,Exit D,1.28540645998668,103.843476210528,29130.45970001812,29759.237399859627
BUKIT BATOK MRT STATION,Exit D,1.34840537590496,103.749118394189,18629.453100040977,36725.49369995728
BUKIT BATOK MRT STATION,Exit A,1.34956107535244,103.749973990258,18724.67590006681,36853.2818999591
BUKIT GOMBAK MRT STATION,Exit C,1.35906497975184,103.751726614847,18919.759000061287,37904.16959997377
BUKIT GOMBAK MRT STATION,Exit A,1.35906984624156,103.752076389375,18958.684900059612,37904.70639997305
BUKIT GOMBAK MRT STATION,Exit D,1.35929785281919,103.751950990526,18944.730299984396,37929.91869997399
BOON LAY MRT STATION,Exit B,1.33842069565789,103.706145547967,13846.98780006324,35621.64369994108
BOON LAY MRT STATION,Exit C,1.33873810873339,103.705955152611,13825.80060003225,35656.742799941756
BOON LAY MRT STATION,Exit A,1.33827998808197,103.705408994969,13765.016300024678,35606.0891999412
LAKESIDE MRT STATION,Exit C,1.34430416996866,103.721712827003,15579.493200014738,36272.125099950244
LAKESIDE MRT STATION,Exit B,1.34408145751948,103.721075412743,15508.554700048491,36247.50189994977
KRANJI MRT STATION,Exit C,1.42512594915704,103.761754685561,20035.989499992393,45208.82710007552
BUKIT PANJANG LRT STATION,Exit A,1.37802038374966,103.763063555247,20181.491300006066,40000.12360000332
BUKIT PANJANG LRT STATION,Exit B,1.3778632485676,103.763178520546,20194.285000085696,39982.748000002895
SAMUDERA LRT STATION,Exit A,1.41586536048285,103.901911509627,35633.41630001102,44184.82700006188
SAMUDERA LRT STATION,Exit B,1.41590585709171,103.902361560111,35683.50040003968,44189.306400061745
TECK LEE LRT STATION,Exit A,1.4128757347357,103.906781529506,36175.39090005832,43854.265600056984
TECK LEE LRT STATION,Exit B,1.41292900309077,103.906510789934,36145.26120007402,43860.154800057084
SAM KEE LRT STATION,Exit A,1.40970250004176,103.905038571005,35981.434900038366,43503.37900005172
PETIR LRT STATION,Exit A,1.37760322809516,103.766793014963,20596.532600041624,39953.98470000221
PENDING LRT STATION,Exit A,1.37629711719364,103.771327842297,21101.19890004716,39809.54790000054
BANGKIT LRT STATION,Exit A,1.37985334676455,103.772590574209,21241.735400068756,40202.77430000623
FAJAR LRT STATION,Exit A,1.38446507117965,103.770675518445,21028.627100050126,40712.721200013395
SEGAR LRT STATION,Exit A,1.38781155599523,103.769409914802,20887.791500014133,41082.76250001845
JELAPANG LRT STATION,Exit A,1.38683269953093,103.764676792845,20361.052800039353,40974.54020001707
TAMPINES MRT STATION,Exit F,1.35419392760642,103.942653681878,40167.75879999704,37365.67439996571
GEYLANG BAHRU MRT STATION,Exit A,1.32156169874025,103.871555607569,32255.40220000148,33757.12799991512
TAMPINES EAST MRT STATION,Exit A,1.35646076166742,103.954540440781,41490.609800063365,37616.392799969646
CHOA CHU KANG MRT STATION,Exit A,1.38543128087598,103.744557135368,18121.986500056933,40819.65270001495
ORCHARD MRT STATION,Exit 3,1.30416113765593,103.832770796508,27939.036800024423,31833.030699887942
ORCHARD MRT STATION,Exit 7,1.30316753447888,103.832171601239,27872.351800059976,31723.16319988633
SOMERSET MRT STATION,Exit B,1.30076651877174,103.838458985164,28572.0809000356,31457.671799883166
DHOBY GHAUT MRT STATION,Exit A,1.29844509204817,103.846787971786,29499.023500086183,31200.983799879148
DHOBY GHAUT MRT STATION,Exit B,1.29905589070891,103.845229558929,29325.585700025877,31268.52189988031
DHOBY GHAUT MRT STATION,Exit E,1.29974847066982,103.84537229423,29341.47050002645,31345.103899881582
DHOBY GHAUT MRT STATION,Exit F,1.29963489191106,103.845842318018,29393.780000059658,31332.545199881664
BUGIS MRT STATION,Exit C,1.30000694069987,103.855685703914,30489.260400048977,31373.69199988225
CITY HALL MRT STATION,Exit A,1.29322711034183,103.853020413551,30192.64330008111,30624.010799871015
CITY HALL MRT STATION,Exit B,1.29309991857995,103.851960217746,30074.65279998841,30609.945699870936
BUGIS MRT STATION,Exit B,1.3007821987657,103.856336627673,30561.701600043383,31459.41669988344
BUGIS MRT STATION,Exit A,1.30120408956464,103.855924081461,30515.78850007382,31506.066799883687
OUTRAM PARK MRT STATION,Exit 1,1.2816024282435,103.838657701712,28594.20070004924,29338.605599852715
OUTRAM PARK MRT STATION,Exit 2,1.28167534568857,103.838934837217,28625.043600001136,29346.66849985315
TANJONG PAGAR MRT STATION,Exit B,1.2766717422527,103.846544590474,29471.949800056882,28793.398999845813
TANJONG PAGAR MRT STATION,Exit A,1.27640850073994,103.84483401421,29281.576400040103,28764.290199845287
TANJONG PAGAR MRT STATION,Exit C,1.27608922999502,103.846533557964,29470.722300008492,28728.987799844523
TANJONG PAGAR MRT STATION,Exit D,1.27606482826343,103.846908800204,29512.48379999222,28726.28979984499
RAFFLES PLACE MRT STATION,Exit H,1.28525828120125,103.851621715866,30036.98670003869,29742.85759985924
RAFFLES PLACE MRT STATION,Exit E,1.28321158212436,103.851522595155,30025.95700007746,29516.54409985539
RAFFLES PLACE MRT STATION,Exit B,1.28460687453702,103.851479978299,30021.213000026757,29670.82829985751
RAFFLES PLACE MRT STATION,Exit G,1.28501689730178,103.851478131997,30021.007199988067,29716.166499858642
RAFFLES PLACE MRT STATION,Exit A,1.28412514770369,103.851438353658,30016.58090001784,29617.56139985755
RAFFLES PLACE MRT STATION,Exit D,1.28364139087742,103.851353214562,30007.10599999246,29564.069999856227
DHOBY GHAUT MRT STATION,Exit D,1.29993066561743,103.845030131864,29303.390800022942,31365.24989988166
OUTRAM PARK MRT STATION,Exit 4,1.28021335386912,103.840386787096,28786.634200061828,29185.009399851213
OUTRAM PARK MRT STATION,Exit 5,1.2789469557329,103.839549241441,28693.42250004247,29044.977399849355
OUTRAM PARK MRT STATION,Exit 6,1.27905123851202,103.838537251968,28580.796200080673,29056.50819984918
CLARKE QUAY MRT STATION,Exit C,1.28938385187247,103.846665833855,29485.43590003275,30199.038499865594
CLARKE QUAY MRT STATION,Exit F,1.28940556680266,103.847129742733,29537.06500005865,30201.43989986551
CLARKE QUAY MRT STATION,Exit A,1.28689878783571,103.846064543773,29418.518800031346,29924.252599861582
CLARKE QUAY MRT STATION,Exit E,1.28900018307139,103.847032643299,29526.258900007393,30156.614599865105
CHINATOWN MRT STATION,Exit C,1.2846748973681,103.842812853584,29056.633900079145,29678.344699857822
CHOA CHU KANG LRT STATION,Exit B,1.38497966418718,103.744595143026,18126.21440005692,40769.71500001367
CHINATOWN MRT STATION,Exit E,1.28504408060892,103.844428119405,29236.399400031434,29719.167799858747
QUEENSTOWN MRT STATION,Exit A,1.29424726215095,103.806182777133,24980.02170002347,30736.821599872346
REDHILL MRT STATION,Exit A,1.28937070467351,103.816994458553,26183.26420007057,30197.586699864733
REDHILL MRT STATION,Exit B,1.28948587536099,103.81724937308,26211.634100065723,30210.3214998655
COMMONWEALTH MRT STATION,Exit B,1.30275277699775,103.798057882031,24075.804700038134,31677.328899886536
COMMONWEALTH MRT STATION,Exit A,1.30264816140773,103.797958292266,24064.72110004619,31665.761199885404
TIONG BAHRU MRT STATION,Exit A,1.28575945589882,103.826990595146,27295.748200023758,29798.26849985987
TIONG BAHRU MRT STATION,Exit B,1.28636194139043,103.827496413393,27352.041699990197,29864.888099860997
HARBOURFRONT MRT STATION,Exit C,1.26525988373469,103.822531651626,26799.495500081062,27531.533499827747
HARBOURFRONT MRT STATION,Exit B,1.2651546823432,103.820508811132,26574.36840002969,27519.90189982817
ORCHARD MRT STATION,Exit 4,1.30456047411925,103.832039800882,27857.68370000705,31877.187299889345
ORCHARD MRT STATION,Exit 1,1.30489217813715,103.832524259379,27911.59949999533,31913.86539988967
NEWTON MRT STATION,Exit A,1.31259779668808,103.837881325391,28507.79020003811,32765.91349990145
NEWTON MRT STATION,Exit B,1.31207546212127,103.838219069361,28545.378000041623,32708.15649990097
ORCHARD MRT STATION,Exit 2,1.30435439856042,103.832619611515,27922.21130008942,31854.400499888576
LAVENDER MRT STATION,Exit A,1.30716946047274,103.863043062903,31308.059199997155,32165.695099893295
LAVENDER MRT STATION,Exit B,1.30761853913167,103.862650316623,31264.349600064947,32215.351399893385
KALLANG MRT STATION,Exit B,1.3117817705438,103.871587075861,32258.920899986122,32675.71359989958
KALLANG MRT STATION,Exit A,1.31154048297553,103.871730564168,32274.89019998285,32649.03349989998
ALJUNIED MRT STATION,Exit B,1.31648793030408,103.882472887782,33470.39859998404,33196.11789990754
ALJUNIED MRT STATION,Exit A,1.31623848534471,103.882496650457,33473.04369998151,33168.53559990708
LITTLE INDIA MRT STATION,Exit B,1.30656355535778,103.848985089711,29743.537599986383,32098.683099891583
FARRER PARK MRT STATION,Exit B,1.3135439659757,103.854763767756,30386.64440006934,32870.54579990289
FARRER PARK MRT STATION,Exit E,1.31188353723816,103.85265097068,30151.511700054296,32686.942199899826
FARRER PARK MRT STATION,Exit F,1.31142204648133,103.853199391142,30212.546100051746,32635.913399898967
PROMENADE MRT STATION,Exit A,1.29171166099886,103.860673611302,31044.37970003929,30456.44809986867
TOA PAYOH MRT STATION,Exit A,1.33237644203021,103.847723804314,29603.151700048413,34952.938799932446
LAKESIDE MRT STATION,Exit A,1.3439833412622,103.720448529393,15438.78880003359,36236.6558999504
CHINESE GARDEN MRT STATION,Exit C,1.34156582633258,103.733393135763,16879.373600037172,35969.2762999465
CHINESE GARDEN MRT STATION,Exit B,1.34198208956493,103.732741825545,16806.891600004376,36015.30759994733
CHINESE GARDEN MRT STATION,Exit A,1.34243874323998,103.732220154829,16748.837299992978,36065.804499948026
JURONG EAST MRT STATION,Exit C,1.33274868462584,103.742762081653,17922.001399986046,34994.28009993219
JURONG EAST MRT STATION,Exit A,1.33398960393819,103.741759898309,17810.473799987027,35131.49889993492
JURONG EAST MRT STATION,Exit B,1.33252623564817,103.742640162983,17908.43220007744,34969.683299932636
YEW TEE MRT STATION,Exit B,1.39806776806003,103.747329880035,18430.608700079647,42216.921600034424
YEW TEE MRT STATION,Exit A,1.39765547935269,103.747195166471,18415.615200059565,42171.33330003317
YEW TEE MRT STATION,Exit C,1.39700077173066,103.74743189325,18441.957099995918,42098.93800003222
YEW TEE MRT STATION,Exit D,1.39727251197228,103.747111431,18406.294999990438,42128.98700003267
BUKIT GOMBAK MRT STATION,Exit B,1.35869526126909,103.752092995698,18960.531600037077,37863.286599972445
KEAT HONG LRT STATION,Exit A,1.37846496701683,103.749226841606,18641.638199993267,40049.333300003695
TECK WHYE LRT STATION,Exit A,1.37656419493699,103.753826102342,19153.471899982833,39839.13780000021
PHOENIX LRT STATION,Exit A,1.37861406821397,103.758252475106,19646.079799986754,40065.78660000415
BUKIT PANJANG MRT STATION,Exit A,1.38074511730578,103.759597843573,19795.80990006101,40301.422700007446
BUANGKOK MRT STATION,Exit A,1.3834097909899,103.892883836731,34628.855600076575,40596.02470001177
TELOK AYER MRT STATION,Exit B,1.28249727503873,103.84877332816,29719.986700039874,29437.5576998549
ONE-NORTH MRT STATION,Exit D,1.30007470288421,103.787784810554,22932.49960005234,31381.21949988196
KENT RIDGE MRT STATION,Exit C,1.29398478516701,103.784490451682,22565.85390003385,30707.83439987199
KENT RIDGE MRT STATION,Exit D,1.29321880284117,103.784534656639,22570.771900083888,30623.135899871697
LITTLE INDIA MRT STATION,Exit D,1.30685473719087,103.848999982241,29745.19479999359,32130.88049989254
BUKIT PANJANG MRT STATION,Exit A,1.37876623763886,103.762034360871,20066.957200043133,40082.59980000433
CHOA CHU KANG MRT STATION,Exit A,1.38539999996952,103.744560000291,18122.30520003385,40816.19380001404
CHOA CHU KANG MRT STATION,Exit B,1.38459999970902,103.744470000052,18112.28600008099,40727.73410001318
CHOA CHU KANG MRT STATION,Exit C,1.38572999956458,103.74447000019,18112.290700037804,40852.68390001513
CHOA CHU KANG MRT STATION,Exit D,1.38536999970775,103.744110000392,18072.225800041473,40812.87840001466
CHOA CHU KANG LRT STATION,Exit E,1.38499999972745,103.744620000447,18128.98080001684,40771.96350001389
GUL CIRCLE MRT STATION,Exit A,1.31903226656851,103.660444143859,8760.741800001782,33478.07189991128
GUL CIRCLE MRT STATION,Exit B,1.31883718313345,103.659434945517,8648.425900009242,33456.50829991065
TUAS CRESCENT MRT STATION,Exit A,1.32076381711222,103.648958741267,7482.537100018104,33669.630599913566
TUAS CRESCENT MRT STATION,Exit B,1.32124359639868,103.649286789109,7519.049700070642,33722.67969991507
TUAS WEST ROAD MRT STATION,Exit A,1.32987242413926,103.639284344709,6405.945400062923,34676.90139992762
TUAS WEST ROAD MRT STATION,Exit B,1.33018233023207,103.639790711295,6462.30180006937,34711.16499992894
TUAS LINK MRT STATION,Exit A,1.34042689920514,103.637245720022,6179.159200087419,35843.98599994421
TUAS LINK MRT STATION,Exit B,1.34094007226858,103.636840667474,6134.085500082296,35900.73399994554
EXPO MRT STATION,Exit C,1.33595097171569,103.962161021864,42338.81470001698,35348.563099937506
EXPO MRT STATION,Exit D,1.33483488834327,103.963100681762,42443.395700035755,35225.157499935645
MACPHERSON MRT STATION,Exit E,1.32619277755048,103.888615211677,34153.95609999727,34269.24489992224
EXPO MRT STATION,Exit E,1.33486331350548,103.962123376874,42334.63150005084,35228.29489993546
MACPHERSON MRT STATION,Exit D,1.32514545867968,103.888454834376,34136.11029999393,34153.4372999211
EXPO MRT STATION,Exit G,1.33501932038682,103.963049007432,42437.643800049686,35245.55079993639
EXPO MRT STATION,Exit A,1.33548282216596,103.961836795084,42302.73430003147,35296.79549993737
EXPO MRT STATION,Exit F,1.33471194824107,103.96286574628,42417.25049999074,35211.561999935264
SPRINGLEAF MRT STATION,Exit 2,1.39782080405751,103.818390607138,26338.71700002553,42189.44360003414
SPRINGLEAF MRT STATION,Exit 3,1.39768417887856,103.818081623801,26304.331200081477,42174.33650003313
WOODLANDS NORTH MRT STATION,Exit 1,1.44793650249651,103.785429080675,22670.655700089494,47731.03600011183
WOODLANDS NORTH MRT STATION,Exit 2,1.44904729970725,103.785102271425,22634.289600080763,47853.86320011291
WOODLANDS MRT STATION,Exit 5,1.43584393593589,103.788964328113,23064.04690006347,46393.892300093
WOODLANDS MRT STATION,Exit 7,1.43449552583778,103.787976768822,22954.143600046093,46244.7940000904
WOODLANDS SOUTH MRT STATION,Exit 1,1.4273020172478,103.793027463346,23516.19550006912,45449.36130007938
WOODLANDS SOUTH MRT STATION,Exit 2,1.42760496413455,103.793413692732,23559.17770007158,45482.85890007958
WOODLANDS SOUTH MRT STATION,Exit 3,1.42742676003562,103.794560497858,23686.799800043562,45463.15180007958
WOODLANDS SOUTH MRT STATION,Exit 4,1.42668424080276,103.794423831787,23671.589500012,45381.048000078226
SPRINGLEAF MRT STATION,Exit 1,1.39878724836535,103.818003414954,26295.628400030146,42296.30840003529
LENTOR MRT STATION,Exit 2,1.38589099008684,103.835823452024,28278.76020005478,40870.30010001494
LENTOR MRT STATION,Exit 1,1.38540982990749,103.835359976701,28227.181400022462,40817.09580001449
LENTOR MRT STATION,Exit 3,1.38460195423691,103.837398080029,28453.996299999377,40727.76530001308
LENTOR MRT STATION,Exit 4,1.3836277515433,103.837338660064,28447.383800043728,40620.042900012006
LENTOR MRT STATION,Exit 5,1.38416237536177,103.836839532696,28391.8372000658,40679.15880001222
MAYFLOWER MRT STATION,Exit 3,1.37353209209743,103.837461041245,28461.005200076892,39503.71619999571
MAYFLOWER MRT STATION,Exit 2,1.37371976104919,103.837031676998,28413.222200033793,39524.46759999597
MAYFLOWER MRT STATION,Exit 1,1.37270397234703,103.83671675131,28378.175000070853,39412.14679999411
MAYFLOWER MRT STATION,Exit 7,1.37137730761848,103.83628496724,28330.122900009137,39265.4508999931
MAYFLOWER MRT STATION,Exit 4,1.37127632290154,103.836795978097,28386.992199986555,39254.28459999268
MAYFLOWER MRT STATION,Exit 5,1.37077733815485,103.836760326587,28383.024699984697,39199.10939999137
MAYFLOWER MRT STATION,Exit 6,1.37089614419322,103.836308734746,28332.768000030777,39212.246299992185
BRIGHT HILL MRT STATION,Exit 1,1.36403718216562,103.833635413994,28035.260000050002,38453.81699998171
BRIGHT HILL MRT STATION,Exit 2,1.36328276235517,103.833510631569,28021.373200080467,38370.397099980255
BRIGHT HILL MRT STATION,Exit 4,1.3631639565255,103.831953829452,27848.119500074205,38357.260199979326
BRIGHT HILL MRT STATION,Exit 3,1.36218380484981,103.832375711055,27895.06990002464,38248.87999997809
UPPER THOMSON MRT STATION,Exit 2,1.35573657470655,103.831833009004,27834.673100011718,37535.97819996794
UPPER THOMSON MRT STATION,Exit 1,1.35483364468235,103.831916196892,27843.930899979045,37436.13679996676
UPPER THOMSON MRT STATION,Exit 5,1.35441782186373,103.83263517825,27923.945300021445,37390.15719996665
UPPER THOMSON MRT STATION,Exit 3,1.35414456637885,103.833924590606,28067.442200004694,37359.94199996614
UPPER THOMSON MRT STATION,Exit 4,1.35350301029652,103.833793867314,28052.89420002898,37289.001999965185
CALDECOTT MRT STATION,Exit 2,1.33825972994181,103.840387499238,28786.695400081746,35603.47909994138
CALDECOTT MRT STATION,Exit 3,1.33783202317926,103.840464745299,28795.29219998593,35556.18549994098
CALDECOTT MRT STATION,Exit 4,1.33675087511065,103.839882429752,28730.487000063313,35436.63749993932
CANBERRA MRT STATION,Exit D,1.44351133884481,103.829254643947,27547.74749998014,47241.66770010414
CANBERRA MRT STATION,Exit A,1.44363014106056,103.829527975861,27578.1650999835,47254.80420010468
CANBERRA MRT STATION,Exit C,1.44280446541205,103.829700293337,27597.341200086485,47163.505100103386
CANBERRA MRT STATION,Exit B,1.44293514818295,103.829961741209,27626.436300008816,47177.955300103626
CANBERRA MRT STATION,Exit E,1.44325591355701,103.830116233173,27643.628899981646,47213.42390010371
WOODLANDS MRT STATION,Exit 2,1.43667311468753,103.786508083762,22790.706100010688,46485.58420009421
WOODLANDS MRT STATION,Exit 3,1.43724336703986,103.787108225411,22857.4940000249,46548.63850009471
WOODLANDS MRT STATION,Exit 4,1.43754037357975,103.788005465669,22957.34380006935,46581.47800009551
WOODLANDS MRT STATION,Exit 1,1.43669687524624,103.785735624465,22704.743200081295,46488.21330009428
WOODLANDS MRT STATION,Exit 6,1.43481517513889,103.789089109752,23077.931000075347,46280.136800091444
WOODLANDS SOUTH MRT STATION,Exit 5,1.42584338690928,103.79436521102,23665.0642999873,45288.07070007762
FERNVALE LRT STATION,Exit A,1.3921582676261,103.876261653892,32779.00010000699,41563.347200025215
BUKIT PANJANG LRT STATION,Exit C,1.37792792775255,103.762722523556,20143.53839998676,39989.90140000313
BUKIT PANJANG LRT STATION,Exit D,1.37802410264834,103.763251851956,20202.44640005246,40000.53420000269
TANAH MERAH MRT STATION,Exit B,1.32706127581436,103.945723041582,40509.48190001326,34365.49439992425
TANAH MERAH MRT STATION,Exit A,1.32685774838818,103.945794727929,40517.46089998419,34342.98969992298
CLEMENTI MRT STATION,Exit A,1.31537355787444,103.764982102595,20394.80760002124,33072.94659990528
CLEMENTI MRT STATION,Exit B,1.31546912943168,103.765185566729,20417.45149998822,33083.51379990557
BUONA VISTA MRT STATION,Exit A,1.30730945077024,103.790449175303,23229.033200081816,32181.195699893004
BUONA VISTA MRT STATION,Exit B,1.30719725705854,103.790656619433,23252.119600046102,32168.789499892628
BUONA VISTA MRT STATION,Exit C,1.30691288861046,103.79059939037,23245.750000028813,32137.34559989265
QUEENSTOWN MRT STATION,Exit B,1.29432990890605,103.806311472758,24994.34449998363,30745.960099872653
CHENG LIM LRT STATION,Exit A,1.39637321823541,103.893684874277,34717.96430004117,42029.45780003138
CHENG LIM LRT STATION,Exit B,1.3961869711233,103.893920331573,34744.16809998239,42008.864200031145
THANGGAM LRT STATION,Exit A,1.39719803592397,103.875566364382,32701.613499996674,42120.61800003299
THANGGAM LRT STATION,Exit B,1.39719245833865,103.875686836958,32715.0204999836,42120.001500032195
KUPANG LRT STATION,Exit A,1.39828419776009,103.881139169799,33321.78989998009,42240.73220003426
KUPANG LRT STATION,Exit B,1.39815879147241,103.881137936207,33321.652900031695,42226.86540003394
FARMWAY LRT STATION,Exit A,1.39720034457508,103.889407447882,34241.94140005308,42120.90550003262
FARMWAY LRT STATION,Exit B,1.39713347750584,103.889115016848,34209.39790008064,42113.51090003241
LAYAR LRT STATION,Exit A,1.39202617213173,103.880159730519,33212.80520002876,41548.74900002438
LAYAR LRT STATION,Exit B,1.39214453741467,103.880142799143,33210.920699986455,41561.837200024966
KRANJI MRT STATION,Exit B,1.42485264466106,103.761940606096,20056.678799989037,45178.60580007603
KRANJI MRT STATION,Exit A,1.42473917121754,103.762018515591,20065.34860001882,45166.058200075226
MARSILING MRT STATION,Exit C,1.43246952240006,103.773820451036,21378.75360000129,46020.80470008688
MARSILING MRT STATION,Exit A,1.43280169435331,103.774210493312,21422.160400078894,46057.533500087855
PAYA LEBAR MRT STATION,Exit A,1.31821599215008,103.892788324105,34618.4026000061,33387.223199910295
PAYA LEBAR MRT STATION,Exit B,1.31834746689885,103.892217168632,34554.83820007434,33401.75949991047
YIO CHU KANG MRT STATION,Exit C,1.38195362130605,103.844645760434,29260.57179999702,40434.928700009106
YIO CHU KANG MRT STATION,Exit A,1.3816444074307,103.844834195491,29281.54240002038,40400.73750000857
YIO CHU KANG MRT STATION,Exit B,1.38154752053604,103.844946847542,29294.079200069333,40390.02430000816
ADMIRALTY MRT STATION,Exit C,1.44059628565794,103.80054245816,24352.524299998757,46919.36160010021
ADMIRALTY MRT STATION,Exit A,1.44034566128304,103.800989521918,24402.275200019558,46891.64810009984
SEMBAWANG MRT STATION,Exit A,1.44883731943313,103.820109735758,26530.06529998884,47830.591800112976
SEMBAWANG MRT STATION,Exit B,1.44876826032584,103.819790204572,26494.506500067124,47822.955800112504
YISHUN MRT STATION,Exit A,1.42939716731595,103.834783603184,28163.03539998995,45680.993200082885
YISHUN MRT STATION,Exit D,1.42910650744289,103.834863485217,28171.925100031745,45648.85350008277
KHATIB MRT STATION,Exit C,1.41754470685258,103.832886913694,27951.961899988695,44370.40780006422
KHATIB MRT STATION,Exit A,1.41705821242698,103.83292241701,27955.912900068935,44316.613700063834
KHATIB MRT STATION,Exit B,1.41714341792972,103.832706667743,27931.903100039628,44326.035300064155
SEMBAWANG MRT STATION,Exit D,1.44892733153759,103.820401560292,26562.540800004535,47840.54470011252
PASIR RIS MRT STATION,Exit B,1.37288623635201,103.949136940349,40889.17360002585,39432.61239999515
PASIR RIS MRT STATION,Exit A,1.37284196908053,103.949333426645,40911.0404000814,39427.71859999514
TAMPINES MRT STATION,Exit A,1.35376401254022,103.944766312107,40402.87310002637,37318.14719996554
TAMPINES MRT STATION,Exit C,1.35339831264921,103.944903957895,40418.193400066266,37277.71059996446
CHOA CHU KANG MRT STATION,Exit C,1.38573618540312,103.744517798771,18117.61010008427,40853.367700014365
LITTLE INDIA MRT STATION,Exit C,1.30635155408624,103.849704822933,29823.637400047875,32075.241599891386
LITTLE INDIA MRT STATION,Exit E,1.30742644439895,103.850322159955,29892.340500084763,32194.09789989355
FARRER PARK MRT STATION,Exit D,1.31245360639306,103.852974635237,30187.53200003738,32749.977799900582
FARRER PARK MRT STATION,Exit C,1.31191067869135,103.853266824822,30220.050400043652,32689.943899900347
FARRER PARK MRT STATION,Exit A,1.31232690903703,103.854772747378,30387.64489999297,32735.969899901193
FARRER PARK MRT STATION,Exit G,1.31225903641299,103.855500982372,30468.690600002144,32728.46559990051
CHANGI AIRPORT MRT STATION,Exit B,1.35722025606017,103.987304579798,45136.887100044376,37700.5813999703
ESPLANADE MRT STATION,Exit G,1.29358640073634,103.85492020244,30404.073000033874,30663.74099987168
ESPLANADE MRT STATION,Exit C,1.29290433691952,103.855855203772,30508.131200017946,30588.322799870766
ESPLANADE MRT STATION,Exit B,1.29292718733646,103.856175670935,30543.796400020514,30590.84979987108
RAFFLES PLACE MRT STATION,Exit C,1.28363052072741,103.851562535487,30030.401700045342,29562.868199856533
RAFFLES PLACE MRT STATION,Exit J,1.28262623356678,103.851296033431,30000.743000063743,29451.819099854776
RAFFLES PLACE MRT STATION,Exit F,1.28253857491919,103.850960902093,29963.445700005024,29442.125999854696
RAFFLES PLACE MRT STATION,Exit I,1.28238230729746,103.851433302399,30016.020100082165,29424.84709985452
TANJONG PAGAR MRT STATION,Exit E,1.27625910113258,103.847095791197,29533.29430002814,28747.771599845062
BENCOOLEN MRT STATION,Exit B,1.29819940045567,103.849560477591,29807.578900034758,31173.81829987903
TAMPINES EAST MRT STATION,Exit C,1.35555317150178,103.955704711379,41620.18510001293,37516.042399967846
MATTAR MRT STATION,Exit A,1.3272514140918,103.882732067245,33499.21910005143,34386.28969992463
TAMPINES MRT STATION,Exit E,1.35585344476425,103.942658810694,40168.32129998913,37549.17569996861
UPPER CHANGI MRT STATION,Exit A,1.34186119734213,103.961328480539,42246.12729998982,36002.082399946274
TAMPINES EAST MRT STATION,Exit B,1.35558822639472,103.955170014221,41560.679100071124,37519.91559996821
JALAN BESAR MRT STATION,Exit B,1.30546727989327,103.855244564615,30440.16030008305,31977.46779988998
BEDOK NORTH MRT STATION,Exit A,1.33512626621364,103.918049823987,37429.69890000606,35257.15799993687
UPPER CHANGI MRT STATION,Exit A,1.3420065422681,103.96096063019,42205.18860003681,36018.15179994654
BEDOK NORTH MRT STATION,Exit B,1.33416607444721,103.919062823449,37542.43890007112,35150.98869993509
BENDEMEER MRT STATION,Exit B,1.3134807250256,103.863219231431,31327.65680007572,32863.56259990279
TAMPINES WEST MRT STATION,Exit A,1.34563058761391,103.938196740006,39671.791900070115,36418.760499952085
UBI MRT STATION,Exit B,1.32983077067473,103.898585570916,35263.546100007225,34671.542799928
FORT CANNING MRT STATION,Exit B,1.29283027594572,103.844425031565,29236.051999999338,30580.125099870867
BEDOK NORTH MRT STATION,Exit B,1.33437249020327,103.919134302662,37550.39300004774,35173.81339993564
MATTAR MRT STATION,Exit B,1.32646352216707,103.883748387313,33612.327000054414,34299.17089992264
FORT CANNING MRT STATION,Exit A,1.29240609557825,103.844170034197,29207.67320005549,30533.221299870092
UBI MRT STATION,Exit A,1.32995082828977,103.899876690857,35407.23420005088,34684.821999927866
UPPER CHANGI MRT STATION,Exit C,1.34199266734225,103.96161727308,42278.26610005146,36016.621399947166
UPPER CHANGI MRT STATION,Exit B,1.34103767912256,103.961476268426,42262.57930000269,35911.02259994497
TAMPINES EAST MRT STATION,Exit D,1.35697019355667,103.955717437922,41621.593500039926,37672.72989996973
TANJONG PAGAR MRT STATION,Exit F,1.27737948810714,103.846927580235,29514.57310004937,28871.658099846616
TANJONG PAGAR MRT STATION,Exit G,1.27778454036503,103.846953147544,29517.41830000192,28916.446699847722
TANJONG PAGAR MRT STATION,Exit H,1.27545090434532,103.846445088412,29460.876700045454,28658.40499984386
ESPLANADE MRT STATION,Exit E,1.29312881366023,103.855567841069,30476.14999999244,30613.14399987078
ESPLANADE MRT STATION,Exit F,1.29381950731267,103.855104632111,30424.59820008063,30689.516899871694
ESPLANADE MRT STATION,Exit D,1.29262374346665,103.85583375579,30505.74450007402,30557.296199870347
PROMENADE MRT STATION,Exit B,1.29386208787626,103.860136884402,30984.644100003854,30694.23059987169
NICOLL HIGHWAY MRT STATION,Exit A,1.30016968970884,103.863505955243,31359.58410001272,31391.696999881555
STADIUM MRT STATION,Exit B,1.30337022602025,103.876226233975,32775.231200050664,31745.616399887425
STADIUM MRT STATION,Exit A,1.3025110877234,103.874399988289,32571.98819999363,31650.613899885175
MOUNTBATTEN MRT STATION,Exit B,1.30604592566075,103.883248292704,33556.71670008515,32041.495999890576
MOUNTBATTEN MRT STATION,Exit A,1.30675271022847,103.882597535734,33484.29190001158,32119.64719989196
DAKOTA MRT STATION,Exit A,1.30881418752426,103.889307215344,34231.01230003954,32347.610499895567
DAKOTA MRT STATION,Exit B,1.30809675040545,103.887979337682,34083.233600079046,32268.27669989443
PAYA LEBAR MRT STATION,Exit C,1.31814928543131,103.891721121592,34499.6335000799,33379.84429990963
PAYA LEBAR MRT STATION,Exit D,1.31658771946928,103.892077699246,34539.321200080005,33207.17519990807
PROMENADE MRT STATION,Exit C,1.29410275636151,103.860236484112,30995.728400058786,30720.8425998731
KHATIB MRT STATION,Exit D,1.41786903711686,103.833231020039,27990.25600008544,44406.270600064636
SIMEI MRT STATION,Exit A,1.34266179453371,103.953818676297,41410.36110003459,36090.56609994826
BEDOK MRT STATION,Exit C,1.32407464586546,103.929404279689,38693.37940004758,34035.171199919176
BUGIS MRT STATION,Exit D,1.29907884888673,103.856890654867,30623.36160001885,31271.06959988032
CITY HALL MRT STATION,Exit C,1.29304184790826,103.852980287708,30188.177800079757,30603.525399871258
QUEENSTOWN MRT STATION,Exit C,1.2954462560701,103.805584729896,24913.465700029617,30869.40089987487
QUEENSTOWN MRT STATION,Exit D,1.29538293052613,103.805492204888,24903.168400039256,30862.398799874798
COMMONWEALTH MRT STATION,Exit C,1.30207704580319,103.798778572605,24156.01000005543,31602.608899885123
COMMONWEALTH MRT STATION,Exit D,1.30201271935133,103.798720258772,24149.520099999343,31595.496099884444
CLEMENTI MRT STATION,Exit D,1.314078414345,103.765570116184,20460.24400007928,32929.734399903406
CLEMENTI MRT STATION,Exit C,1.31416229810691,103.765749815719,20480.243099984506,32939.009299904006
JURONG EAST MRT STATION,Exit D,1.33358133108919,103.742298193307,17870.378800026523,35086.35189993405
ANG MO KIO MRT STATION,Exit D,1.36988237526817,103.84982457248,29836.91720007035,39100.15499999026
SOMERSET MRT STATION,Exit C,1.30043622058993,103.838765584281,28606.20269999249,31421.149199882202
SOMERSET MRT STATION,Exit D,1.30024113867986,103.839734148085,28713.995200058394,31399.578299882174
MARINA SOUTH PIER MRT STATION,Exit A,1.27052998951863,103.86233005097,31228.753700048226,28114.290099835718
MARINA SOUTH PIER MRT STATION,Exit B,1.27143783716222,103.863579669764,31367.825500041992,28214.676799837813
CHINATOWN MRT STATION,Exit G,1.28473608363703,103.84445854173,29239.78530006985,29685.111099858146
CHINATOWN MRT STATION,Exit F,1.28427477607278,103.845462531796,29351.521299983153,29634.102599857695
BUKIT PANJANG MRT STATION,Exit B,1.37861889401251,103.761370504957,19993.07780003258,40066.30950000352
HILLVIEW MRT STATION,Exit A,1.36247423794507,103.767688290103,20696.119800025965,38281.09409997899
BEAUTY WORLD MRT STATION,Exit A,1.3416961499328,103.775984296226,21619.31390002402,35983.5344999464
BEAUTY WORLD MRT STATION,Exit C,1.33998187378458,103.775761545626,21594.519700012785,35793.97909994391
KING ALBERT PARK MRT STATION,Exit B,1.33597604551556,103.784561584781,22573.86110007392,35351.01369993759
SIXTH AVENUE MRT STATION,Exit B,1.33152130143572,103.796848178229,23941.222200066768,34858.40709993098
TAN KAH KEE MRT STATION,Exit B,1.32614615882549,103.807800873707,25160.137700088235,34264.03599992197
BOTANIC GARDENS MRT STATION,Exit B,1.32268461233639,103.815914145792,26063.060100083745,33881.268099916975
NEWTON MRT STATION,Exit C,1.31361726914981,103.838242381635,28547.972099983515,32878.64159990324
LITTLE INDIA MRT STATION,Exit F,1.30768353655885,103.848304399136,29667.782300055485,32222.524399893577
ROCHOR MRT STATION,Exit B,1.30421477703374,103.853104335649,30201.973599985446,31838.97049988801
DOWNTOWN MRT STATION,Exit A,1.27977345528297,103.852646560011,30151.047900047008,29136.374699850865
